{"type": "FeatureCollection", "features": [ {"type": "Feature", "properties": {"norad_id": 66609, "name": "STARLINK-36034", "group": "last-30-days", "lat": 29.66379498421283, "lon": -118.73987111282335, "alt_km": 411.4938628105656, "timestamp": "2025-12-10T20:49:51.345550+00:00", "meta": {"OBJECT_NAME": "STARLINK-36034", "OBJECT_ID": "2025-270X", "EPOCH": "2025-12-10T14:00:03.000384", "MEAN_MOTION": 15.50664843, "ECCENTRICITY": 0.0001858, "INCLINATION": 42.9995, "RA_OF_ASC_NODE": 205.2476, "ARG_OF_PERICENTER": 250.2099, "MEAN_ANOMALY": 5.8525, "EPHEMERIS_TYPE": 0, "CLASSIFICATION_TYPE": "U", "NORAD_CAT_ID": 66609, "ELEMENT_SET_NO": 999, "REV_AT_EPOCH": 389, "BSTAR": -0.0029017411, "MEAN_MOTION_DOT": -0.00167503, "MEAN_MOTION_DDOT": 0}, "tle": {"line1": "1 66609U 25270X   25344.58336806 -.00167503  00000+0 -29017-2 0  9994", "line2": "2 66609  42.9995 205.2476 0001858 250.2099   5.8525 15.50664843  3899"}}, "geometry": {"type": "Point", "coordinates": [-118.73987111282335, 29.66379498421283]}}, {"type": "Feature", "properties": {"norad_id": 66610, "name": "STARLINK-35680", "group": "last-30-days", "lat": 30.686004055899783, "lon": -116.86649237859632, "alt_km": 411.2938816681426, "timestamp": "2025-12-10T20:49:51.345561+00:00", "meta": {"OBJECT_NAME": "STARLINK-35680", "OBJECT_ID": "2025-270Y", "EPOCH": "2025-12-10T14:00:03.000384", "MEAN_MOTION": 15.50667156, "ECCENTRICITY": 0.00018389, "INCLINATION": 42.9997, "RA_OF_ASC_NODE": 205.2425, "ARG_OF_PERICENTER": 254.1139, "MEAN_ANOMALY": 3.863, "EPHEMERIS_TYPE": 0, "CLASSIFICATION_TYPE": "U", "NORAD_CAT_ID": 66610, "ELEMENT_SET_NO": 999, "REV_AT_EPOCH": 416, "BSTAR": -0.0029431847, "MEAN_MOTION_DOT": -0.00169853, "MEAN_MOTION_DDOT": 0}, "tle": {"line1": "1 66610U 25270Y   25344.58336806 -.00169853  00000+0 -29432-2 0  9997", "line2": "2 66610  42.9997 205.2425 0001838 254.1139   3.8630 15.50667156  4169"}}, "geometry": {"type": "Point", "coordinates": [-116.86649237859632, 30.686004055899783]}}, {"type": "Feature", "properties": {"norad_id": 66611, "name": "STARLINK-35583", "group": "last-30-days", "lat": 31.68025627694518, "lon": -114.95370023544179, "alt_km": 411.1907877754138, "timestamp": "2025-12-10T20:49:51.345571+00:00", "meta": {"OBJECT_NAME": "STARLINK-35583", "OBJECT_ID": "2025-270Z", "EPOCH": "2025-12-10T14:00:03.000384", "MEAN_MOTION": 15.50661458, "ECCENTRICITY": 0.00018566, "INCLINATION": 42.9998, "RA_OF_ASC_NODE": 205.2377, "ARG_OF_PERICENTER": 251.6419, "MEAN_ANOMALY": 8.2564, "EPHEMERIS_TYPE": 0, "CLASSIFICATION_TYPE": "U", "NORAD_CAT_ID": 66611, "ELEMENT_SET_NO": 999, "REV_AT_EPOCH": 416, "BSTAR": -0.0028295954, "MEAN_MOTION_DOT": -0.00163411, "MEAN_MOTION_DDOT": 0}, "tle": {"line1": "1 66611U 25270Z   25344.58336806 -.00163411  00000+0 -28296-2 0  9999", "line2": "2 66611  42.9998 205.2377 0001856 251.6419   8.2564 15.50661458  4164"}}, "geometry": {"type": "Point", "coordinates": [-114.95370023544179, 31.68025627694518]}}, {"type": "Feature", "properties": {"norad_id": 66612, "name": "STARLINK-36039", "group": "last-30-days", "lat": 32.64593130338952, "lon": -112.99926258909987, "alt_km": 411.0654730223705, "timestamp": "2025-12-10T20:49:51.345581+00:00", "meta": {"OBJECT_NAME": "STARLINK-36039", "OBJECT_ID": "2025-270AA", "EPOCH": "2025-12-10T14:00:03.000384", "MEAN_MOTION": 15.50665244, "ECCENTRICITY": 0.00018657, "INCLINATION": 42.9997, "RA_OF_ASC_NODE": 205.2318, "ARG_OF_PERICENTER": 251.6652, "MEAN_ANOMALY": 10.151, "EPHEMERIS_TYPE": 0, "CLASSIFICATION_TYPE": "U", "NORAD_CAT_ID": 66612, "ELEMENT_SET_NO": 999, "REV_AT_EPOCH": 405, "BSTAR": -0.0030300388, "MEAN_MOTION_DOT": -0.00174737, "MEAN_MOTION_DDOT": 0}, "tle": {"line1": "1 66612U 25270AA  25344.58336806 -.00174737  00000+0 -30300-2 0  9992", "line2": "2 66612  42.9997 205.2318 0001865 251.6652  10.1510 15.50665244  4056"}}, "geometry": {"type": "Point", "coordinates": [-112.99926258909987, 32.64593130338952]}}, {"type": "Feature", "properties": {"norad_id": 66613, "name": "STARLINK-36037", "group": "last-30-days", "lat": 33.58240136790132, "lon": -110.99691739571368, "alt_km": 410.9407044407981, "timestamp": "2025-12-10T20:49:51.345591+00:00", "meta": {"OBJECT_NAME": "STARLINK-36037", "OBJECT_ID": "2025-270AB", "EPOCH": "2025-12-10T14:00:03.000384", "MEAN_MOTION": 15.50685792, "ECCENTRICITY": 0.00018711, "INCLINATION": 42.9998, "RA_OF_ASC_NODE": 205.2279, "ARG_OF_PERICENTER": 252.0482, "MEAN_ANOMALY": 11.6808, "EPHEMERIS_TYPE": 0, "CLASSIFICATION_TYPE": "U", "NORAD_CAT_ID": 66613, "ELEMENT_SET_NO": 999, "REV_AT_EPOCH": 405, "BSTAR": -0.00372894, "MEAN_MOTION_DOT": -0.00214055, "MEAN_MOTION_DDOT": 0}, "tle": {"line1": "1 66613U 25270AB  25344.58336806 -.00214055  00000+0 -37289-2 0  9994", "line2": "2 66613  42.9998 205.2279 0001871 252.0482  11.6808 15.50685792  4053"}}, "geometry": {"type": "Point", "coordinates": [-110.99691739571368, 33.58240136790132]}}, {"type": "Feature", "properties": {"norad_id": 66614, "name": "STARLINK-36040", "group": "last-30-days", "lat": 35.34685348958674, "lon": -106.88201840402418, "alt_km": 410.58772318262163, "timestamp": "2025-12-10T20:49:51.345602+00:00", "meta": {"OBJECT_NAME": "STARLINK-36040", "OBJECT_ID": "2025-270AC", "EPOCH": "2025-12-10T14:00:03.000384", "MEAN_MOTION": 15.50668551, "ECCENTRICITY": 0.0001732, "INCLINATION": 42.9997, "RA_OF_ASC_NODE": 205.2175, "ARG_OF_PERICENTER": 252.6595, "MEAN_ANOMALY": 14.9065, "EPHEMERIS_TYPE": 0, "CLASSIFICATION_TYPE": "U", "NORAD_CAT_ID": 66614, "ELEMENT_SET_NO": 999, "REV_AT_EPOCH": 389, "BSTAR": -0.0032129084, "MEAN_MOTION_DOT": -0.00185039, "MEAN_MOTION_DDOT": 0}, "tle": {"line1": "1 66614U 25270AC  25344.58336806 -.00185039  00000+0 -32129-2 0  9992", "line2": "2 66614  42.9997 205.2175 0001732 252.6595  14.9065 15.50668551  3891"}}, "geometry": {"type": "Point", "coordinates": [-106.88201840402418, 35.34685348958674]}}, {"type": "Feature", "properties": {"norad_id": 66615, "name": "STARLINK-35988", "group": "last-30-days", "lat": 34.467661720829, "lon": -108.99520381232033, "alt_km": 410.7660539735234, "timestamp": "2025-12-10T20:49:51.345612+00:00", "meta": {"OBJECT_NAME": "STARLINK-35988", "OBJECT_ID": "2025-270AD", "EPOCH": "2025-12-10T14:00:03.000384", "MEAN_MOTION": 15.50653355, "ECCENTRICITY": 0.00015824, "INCLINATION": 42.9998, "RA_OF_ASC_NODE": 205.2222, "ARG_OF_PERICENTER": 235.4884, "MEAN_ANOMALY": 30.1624, "EPHEMERIS_TYPE": 0, "CLASSIFICATION_TYPE": "U", "NORAD_CAT_ID": 66615, "ELEMENT_SET_NO": 999, "REV_AT_EPOCH": 389, "BSTAR": -0.0036917402, "MEAN_MOTION_DOT": -0.00211731, "MEAN_MOTION_DDOT": 0}, "tle": {"line1": "1 66615U 25270AD  25344.58336806 -.00211731  00000+0 -36917-2 0  9991", "line2": "2 66615  42.9998 205.2222 0001582 235.4884  30.1624 15.50653355  3896"}}, "geometry": {"type": "Point", "coordinates": [-108.99520381232033, 34.467661720829]}}, {"type": "Feature", "properties": {"norad_id": 66616, "name": "STARLINK-35391", "group": "last-30-days", "lat": 36.175731726300825, "lon": -104.75685194081767, "alt_km": 410.53295300252194, "timestamp": "2025-12-10T20:49:51.345622+00:00", "meta": {"OBJECT_NAME": "STARLINK-35391", "OBJECT_ID": "2025-270AE", "EPOCH": "2025-12-10T14:00:03.000384", "MEAN_MOTION": 15.50676632, "ECCENTRICITY": 0.00017987, "INCLINATION": 42.9997, "RA_OF_ASC_NODE": 205.2128, "ARG_OF_PERICENTER": 249.0241, "MEAN_ANOMALY": 20.4548, "EPHEMERIS_TYPE": 0, "CLASSIFICATION_TYPE": "U", "NORAD_CAT_ID": 66616, "ELEMENT_SET_NO": 999, "REV_AT_EPOCH": 416, "BSTAR": -0.0035103687, "MEAN_MOTION_DOT": -0.00201773, "MEAN_MOTION_DDOT": 0}, "tle": {"line1": "1 66616U 25270AE  25344.58336806 -.00201773  00000+0 -35104-2 0  9994", "line2": "2 66616  42.9997 205.2128 0001798 249.0241  20.4548 15.50676632  4169"}}, "geometry": {"type": "Point", "coordinates": [-104.75685194081767, 36.175731726300825]}}, {"type": "Feature", "properties": {"norad_id": 66617, "name": "STARLINK-35940", "group": "last-30-days", "lat": 38.7066158296449, "lon": -126.83120713461228, "alt_km": 387.7725829306146, "timestamp": "2025-12-10T20:49:51.345634+00:00", "meta": {"OBJECT_NAME": "STARLINK-35940", "OBJECT_ID": "2025-271A", "EPOCH": "2025-12-10T14:00:03.000384", "MEAN_MOTION": 15.5933383, "ECCENTRICITY": 0.00011695, "INCLINATION": 53.16, "RA_OF_ASC_NODE": 197.6231, "ARG_OF_PERICENTER": 117.3748, "MEAN_ANOMALY": 136.264, "EPHEMERIS_TYPE": 0, "CLASSIFICATION_TYPE": "U", "NORAD_CAT_ID": 66617, "ELEMENT_SET_NO": 999, "REV_AT_EPOCH": 389, "BSTAR": -0.027913359, "MEAN_MOTION_DOT": -0.01970465, "MEAN_MOTION_DDOT": 0}, "tle": {"line1": "1 66617U 25271A   25344.58336806 -.01970465  00000+0 -27913-1 0  9996", "line2": "2 66617  53.1600 197.6231 0001169 117.3748 136.2640 15.59333830  3892"}}, "geometry": {"type": "Point", "coordinates": [-126.83120713461228, 38.7066158296449]}}, {"type": "Feature", "properties": {"norad_id": 66618, "name": "STARLINK-35970", "group": "last-30-days", "lat": 50.66737620398499, "lon": -50.06354799575117, "alt_km": 385.7117844580125, "timestamp": "2025-12-10T20:49:51.345648+00:00", "meta": {"OBJECT_NAME": "STARLINK-35970", "OBJECT_ID": "2025-271B", "EPOCH": "2025-12-10T14:00:03.000384", "MEAN_MOTION": 15.59335948, "ECCENTRICITY": 8.582e-05, "INCLINATION": 53.1602, "RA_OF_ASC_NODE": 197.5105, "ARG_OF_PERICENTER": 100.4472, "MEAN_ANOMALY": 206.5206, "EPHEMERIS_TYPE": 0, "CLASSIFICATION_TYPE": "U", "NORAD_CAT_ID": 66618, "ELEMENT_SET_NO": 999, "REV_AT_EPOCH": 389, "BSTAR": -0.028060877, "MEAN_MOTION_DOT": -0.01979528, "MEAN_MOTION_DDOT": 0}, "tle": {"line1": "1 66618U 25271B   25344.58336806 -.01979528  00000+0 -28061-1 0  9991", "line2": "2 66618  53.1602 197.5105 0000858 100.4472 206.5206 15.59335948  3896"}}, "geometry": {"type": "Point", "coordinates": [-50.06354799575117, 50.66737620398499]}}]}